CCSDS_OMM_VERS = 2.0
CREATION_DATE  = 
ORIGINATOR     = 

OBJECT_NAME    = STARLINK-36078
OBJECT_ID      = 2025-294W
CENTER_NAME    = EARTH
REF_FRAME      = TEME
TIME_SYSTEM    = UTC
MEAN_ELEMENT_THEORY = SGP/SGP4

EPOCH          = 2025-12-26T20:00:01.999008
MEAN_MOTION    = 15.64210244
ECCENTRICITY   = .0001422
INCLINATION    = 42.9997
RA_OF_ASC_NODE = 96.1031
ARG_OF_PERICENTER = 275.7896
MEAN_ANOMALY   = 348.3050

EPHEMERIS_TYPE = 0
CLASSIFICATION_TYPE = U
NORAD_CAT_ID   = 67050
ELEMENT_SET_NO = 999
REV_AT_EPOCH   = 248
BSTAR          = -.22509E-1
MEAN_MOTION_DOT = -.1944944E-1
MEAN_MOTION_DDOT = 0

CCSDS_OMM_VERS = 2.0
CREATION_DATE  = 
ORIGINATOR     = 

OBJECT_NAME    = STARLINK-35706
OBJECT_ID      = 2025-294X
CENTER_NAME    = EARTH
REF_FRAME      = TEME
TIME_SYSTEM    = UTC
MEAN_ELEMENT_THEORY = SGP/SGP4

EPOCH          = 2025-12-26T20:00:01.999008
MEAN_MOTION    = 15.64188843
ECCENTRICITY   = .0001465
INCLINATION    = 42.9997
RA_OF_ASC_NODE = 96.0979
ARG_OF_PERICENTER = 277.7449
MEAN_ANOMALY   = 348.4798

EPHEMERIS_TYPE = 0
CLASSIFICATION_TYPE = U
NORAD_CAT_ID   = 67051
ELEMENT_SET_NO = 999
REV_AT_EPOCH   = 256
BSTAR          = -.22484E-1
MEAN_MOTION_DOT = -.1941605E-1
MEAN_MOTION_DDOT = 0

CCSDS_OMM_VERS = 2.0
CREATION_DATE  = 
ORIGINATOR     = 

OBJECT_NAME    = STARLINK-35720
OBJECT_ID      = 2025-294Y
CENTER_NAME    = EARTH
REF_FRAME      = TEME
TIME_SYSTEM    = UTC
MEAN_ELEMENT_THEORY = SGP/SGP4

EPOCH          = 2025-12-26T20:00:01.999008
MEAN_MOTION    = 15.64189267
ECCENTRICITY   = .0001479
INCLINATION    = 42.9998
RA_OF_ASC_NODE = 96.0931
ARG_OF_PERICENTER = 277.6648
MEAN_ANOMALY   = 350.5109

EPHEMERIS_TYPE = 0
CLASSIFICATION_TYPE = U
NORAD_CAT_ID   = 67052
ELEMENT_SET_NO = 999
REV_AT_EPOCH   = 255
BSTAR          = -.22523E-1
MEAN_MOTION_DOT = -.1944657E-1
MEAN_MOTION_DDOT = 0

CCSDS_OMM_VERS = 2.0
CREATION_DATE  = 
ORIGINATOR     = 

OBJECT_NAME    = STARLINK-35739
OBJECT_ID      = 2025-294Z
CENTER_NAME    = EARTH
REF_FRAME      = TEME
TIME_SYSTEM    = UTC
MEAN_ELEMENT_THEORY = SGP/SGP4

EPOCH          = 2025-12-26T20:00:01.999008
MEAN_MOTION    = 15.64176215
ECCENTRICITY   = .0001535
INCLINATION    = 43.0002
RA_OF_ASC_NODE = 96.0882
ARG_OF_PERICENTER = 277.5204
MEAN_ANOMALY   = 352.7153

EPHEMERIS_TYPE = 0
CLASSIFICATION_TYPE = U
NORAD_CAT_ID   = 67053
ELEMENT_SET_NO = 999
REV_AT_EPOCH   = 221
BSTAR          = -.22517E-1
MEAN_MOTION_DOT = -.1943329E-1
MEAN_MOTION_DDOT = 0

CCSDS_OMM_VERS = 2.0
CREATION_DATE  = 
ORIGINATOR     = 

OBJECT_NAME    = STARLINK-35754
OBJECT_ID      = 2025-294AA
CENTER_NAME    = EARTH
REF_FRAME      = TEME
TIME_SYSTEM    = UTC
MEAN_ELEMENT_THEORY = SGP/SGP4

EPOCH          = 2025-12-26T20:00:01.999008
MEAN_MOTION    = 15.64151426
ECCENTRICITY   = .0001495
INCLINATION    = 42.9997
RA_OF_ASC_NODE = 96.0826
ARG_OF_PERICENTER = 278.6062
MEAN_ANOMALY   = 353.7800

EPHEMERIS_TYPE = 0
CLASSIFICATION_TYPE = U
NORAD_CAT_ID   = 67054
ELEMENT_SET_NO = 999
REV_AT_EPOCH   = 237
BSTAR          = -.22468E-1
MEAN_MOTION_DOT = -.1937819E-1
MEAN_MOTION_DDOT = 0

CCSDS_OMM_VERS = 2.0
CREATION_DATE  = 
ORIGINATOR     = 

OBJECT_NAME    = STARLINK-35790
OBJECT_ID      = 2025-294AB
CENTER_NAME    = EARTH
REF_FRAME      = TEME
TIME_SYSTEM    = UTC
MEAN_ELEMENT_THEORY = SGP/SGP4

EPOCH          = 2025-12-26T20:00:01.999008
MEAN_MOTION    = 15.64140262
ECCENTRICITY   = .0001537
INCLINATION    = 42.9996
RA_OF_ASC_NODE = 96.0766
ARG_OF_PERICENTER = 276.0643
MEAN_ANOMALY   = 358.4273

EPHEMERIS_TYPE = 0
CLASSIFICATION_TYPE = U
NORAD_CAT_ID   = 67055
ELEMENT_SET_NO = 999
REV_AT_EPOCH   = 256
BSTAR          = -.22552E-1
MEAN_MOTION_DOT = -.1943513E-1
MEAN_MOTION_DDOT = 0

CCSDS_OMM_VERS = 2.0
CREATION_DATE  = 
ORIGINATOR     = 

OBJECT_NAME    = STARLINK-36143
OBJECT_ID      = 2025-294AC
CENTER_NAME    = EARTH
REF_FRAME      = TEME
TIME_SYSTEM    = UTC
MEAN_ELEMENT_THEORY = SGP/SGP4

EPOCH          = 2025-12-26T20:00:01.999008
MEAN_MOTION    = 15.64121058
ECCENTRICITY   = .0001545
INCLINATION    = 42.9993
RA_OF_ASC_NODE = 96.0613
ARG_OF_PERICENTER = 279.1298
MEAN_ANOMALY   = 1.3079

EPHEMERIS_TYPE = 0
CLASSIFICATION_TYPE = U
NORAD_CAT_ID   = 67056
ELEMENT_SET_NO = 999
REV_AT_EPOCH   = 256
BSTAR          = -.22523E-1
MEAN_MOTION_DOT = -.1939952E-1
MEAN_MOTION_DDOT = 0

CCSDS_OMM_VERS = 2.0
CREATION_DATE  = 
ORIGINATOR     = 

OBJECT_NAME    = STARLINK-36141
OBJECT_ID      = 2025-294AD
CENTER_NAME    = EARTH
REF_FRAME      = TEME
TIME_SYSTEM    = UTC
MEAN_ELEMENT_THEORY = SGP/SGP4

EPOCH          = 2025-12-26T20:00:01.999008
MEAN_MOTION    = 15.64131833
ECCENTRICITY   = .0001517
INCLINATION    = 42.9992
RA_OF_ASC_NODE = 96.0668
ARG_OF_PERICENTER = 279.3760
MEAN_ANOMALY   = 359.0441

EPHEMERIS_TYPE = 0
CLASSIFICATION_TYPE = U
NORAD_CAT_ID   = 67057
ELEMENT_SET_NO = 999
REV_AT_EPOCH   = 248
BSTAR          = -.22553E-1
MEAN_MOTION_DOT = -.1942969E-1
MEAN_MOTION_DDOT = 0

CCSDS_OMM_VERS = 2.0
CREATION_DATE  = 
ORIGINATOR     = 

OBJECT_NAME    = STARLINK-35767
OBJECT_ID      = 2025-294AE
CENTER_NAME    = EARTH
REF_FRAME      = TEME
TIME_SYSTEM    = UTC
MEAN_ELEMENT_THEORY = SGP/SGP4

EPOCH          = 2025-12-26T20:00:01.999008
MEAN_MOTION    = 15.64128406
ECCENTRICITY   = .0001433
INCLINATION    = 42.9996
RA_OF_ASC_NODE = 96.0718
ARG_OF_PERICENTER = 277.3826
MEAN_ANOMALY   = 359.0971

EPHEMERIS_TYPE = 0
CLASSIFICATION_TYPE = U
NORAD_CAT_ID   = 67058
ELEMENT_SET_NO = 999
REV_AT_EPOCH   = 237
BSTAR          = -.22478E-1
MEAN_MOTION_DOT = -.1936974E-1
MEAN_MOTION_DDOT = 0

CCSDS_OMM_VERS = 2.0
CREATION_DATE  = 
ORIGINATOR     = 

OBJECT_NAME    = HULIANWANG DIGUI-119
OBJECT_ID      = 2025-295A
CENTER_NAME    = EARTH
REF_FRAME      = TEME
TIME_SYSTEM    = UTC
MEAN_ELEMENT_THEORY = SGP/SGP4

EPOCH          = 2025-12-26T20:50:28.857984
MEAN_MOTION    = 14.24617725
ECCENTRICITY   = .0014008
INCLINATION    = 50.0049
RA_OF_ASC_NODE = 312.6474
ARG_OF_PERICENTER = 296.2589
MEAN_ANOMALY   = 63.6884

EPHEMERIS_TYPE = 0
CLASSIFICATION_TYPE = U
NORAD_CAT_ID   = 67059
ELEMENT_SET_NO = 999
REV_AT_EPOCH   = 213
BSTAR          = .90186E-4
MEAN_MOTION_DOT = .51E-6
MEAN_MOTION_DDOT = 0

CCSDS_OMM_VERS = 2.0
CREATION_DATE  = 
ORIGINATOR     = 

OBJECT_NAME    = HULIANWANG DIGUI-120
OBJECT_ID      = 2025-295B
CENTER_NAME    = EARTH
REF_FRAME      = TEME
TIME_SYSTEM    = UTC
MEAN_ELEMENT_THEORY = SGP/SGP4

EPOCH          = 2025-12-23T18:39:46.505376
MEAN_MOTION    = 14.25711377
ECCENTRICITY   = .0013178
INCLINATION    = 50.0058
RA_OF_ASC_NODE = 325.6343
ARG_OF_PERICENTER = 286.4479
MEAN_ANOMALY   = 73.4987

EPHEMERIS_TYPE = 0
CLASSIFICATION_TYPE = U
NORAD_CAT_ID   = 67060
ELEMENT_SET_NO = 999
REV_AT_EPOCH   = 169
BSTAR          = .67209387E-4
MEAN_MOTION_DOT = .1E-7
MEAN_MOTION_DDOT = 0

CCSDS_OMM_VERS = 2.0
CREATION_DATE  = 
ORIGINATOR     = 

OBJECT_NAME    = HULIANWANG DIGUI-121
OBJECT_ID      = 2025-295C
CENTER_NAME    = EARTH
REF_FRAME      = TEME
TIME_SYSTEM    = UTC
MEAN_ELEMENT_THEORY = SGP/SGP4

EPOCH          = 2025-12-23T10:16:36.437664
MEAN_MOTION    = 14.25038967
ECCENTRICITY   = .00134061
INCLINATION    = 50.0019
RA_OF_ASC_NODE = 327.1083
ARG_OF_PERICENTER = 283.4183
MEAN_ANOMALY   = 76.5236

EPHEMERIS_TYPE = 0
CLASSIFICATION_TYPE = U
NORAD_CAT_ID   = 67061
ELEMENT_SET_NO = 999
REV_AT_EPOCH   = 164
BSTAR          = -.33550159E-4
MEAN_MOTION_DOT = -.239E-5
MEAN_MOTION_DDOT = 0

