STARLINK-36078          
1 67050U 25294W   25360.83335647 -.01944944  00000+0 -22509-1 0  9990
2 67050  42.9997  96.1031 0001422 275.7896 348.3050 15.64210244  2489
STARLINK-35706          
1 67051U 25294X   25360.83335647 -.01941605  00000+0 -22484-1 0  9994
2 67051  42.9997  96.0979 0001465 277.7449 348.4798 15.64188843  2561
STARLINK-35720          
1 67052U 25294Y   25360.83335647 -.01944657  00000+0 -22523-1 0  9999
2 67052  42.9998  96.0931 0001479 277.6648 350.5109 15.64189267  2556
STARLINK-35739          
1 67053U 25294Z   25360.83335647 -.01943329  00000+0 -22517-1 0  9998
2 67053  43.0002  96.0882 0001535 277.5204 352.7153 15.64176215  2215
STARLINK-35754          
1 67054U 25294AA  25360.83335647 -.01937819  00000+0 -22468-1 0  9991
2 67054  42.9997  96.0826 0001495 278.6062 353.7800 15.64151426  2378
STARLINK-35790          
1 67055U 25294AB  25360.83335647 -.01943513  00000+0 -22552-1 0  9994
2 67055  42.9996  96.0766 0001537 276.0643 358.4273 15.64140262  2568
STARLINK-36143          
1 67056U 25294AC  25360.83335647 -.01939952  00000+0 -22523-1 0  9995
2 67056  42.9993  96.0613 0001545 279.1298   1.3079 15.64121058  2566
STARLINK-36141          
1 67057U 25294AD  25360.83335647 -.01942969  00000+0 -22553-1 0  9991
2 67057  42.9992  96.0668 0001517 279.3760 359.0441 15.64131833  2480
STARLINK-35767          
1 67058U 25294AE  25360.83335647 -.01936974  00000+0 -22478-1 0  9997
2 67058  42.9996  96.0718 0001433 277.3826 359.0971 15.64128406  2377
HULIANWANG DIGUI-119    
1 67059U 25295A   25360.86838956  .00000051  00000+0  90186-4 0  9992
2 67059  50.0049 312.6474 0014008 296.2589  63.6884 14.24617725  2138
HULIANWANG DIGUI-120    
1 67060U 25295B   25357.77762159  .00000001  00000+0  67209-4 0  9996
2 67060  50.0058 325.6343 0013178 286.4479  73.4987 14.25711377  1697
HULIANWANG DIGUI-121    
1 67061U 25295C   25357.42819951 -.00000239  00000+0 -33550-4 0  9999
2 67061  50.0019 327.1083 0013406 283.4183  76.5236 14.25038967  1649
